ONEWEB-0118             
1 47264U 20100G   24082.67856932 -.00000358  00000+0 -10302-2 0  9993
2 47264  87.9012 153.1666 0002486 113.2336 246.9054 13.12443018157627
ONEWEB-0120             
1 47266U 20100J   24082.72954367  .00000307  00000+0  81885-3 0  9999
2 47266  87.9013 153.1832 0001876 103.7532 256.3806 13.12441699157633
ONEWEB-0121             
1 47267U 20100K   24082.71828036  .00000431  00000+0  11638-2 0  9998
2 47267  87.9006 153.1809 0001859  98.8123 261.3216 13.12443311157545
ONEWEB-0123             
1 47269U 20100M   24082.70875413  .00000217  00000+0  56910-3 0  9995
2 47269  87.9010 153.1981 0002108 105.1551 254.9811 13.12440678157595
ONEWEB-0124             
1 47270U 20100N   24082.69763014 -.00000094  00000+0 -29659-3 0  9993
2 47270  87.9013 153.1962 0001780  95.1292 265.0039 13.12444955157478
ONEWEB-0125             
1 47271U 20100P   24082.74844719 -.00000269  00000+0 -78375-3 0  9995
2 47271  87.9011 153.1438 0002336  97.4683 262.6711 13.12444463157544
